[{"OBJECT_NAME":"STARLINK-35692","OBJECT_ID":"2025-263AE","EPOCH":"2026-03-09T03:27:29.670624","MEAN_MOTION":15.27618533,"ECCENTRICITY":9.372e-5,"INCLINATION":43,"RA_OF_ASC_NODE":353.9242,"ARG_OF_PERICENTER":256.6074,"MEAN_ANOMALY":103.4673,"EPHEMERIS_TYPE":0,"CLASSIFICATION_TYPE":"U","NORAD_CAT_ID":66513,"ELEMENT_SET_NO":999,"REV_AT_EPOCH":1881,"BSTAR":0.0010285494,"MEAN_MOTION_DOT":0.00028183,"MEAN_MOTION_DDOT":0},{"OBJECT_NAME":"CZ-6A DEB","OBJECT_ID":"2024-140YZ","EPOCH":"2026-03-09T14:14:13.172928","MEAN_MOTION":14.91044947,"ECCENTRICITY":0.0161166,"INCLINATION":89.0861,"RA_OF_ASC_NODE":285.7767,"ARG_OF_PERICENTER":146.5264,"MEAN_ANOMALY":214.6281,"EPHEMERIS_TYPE":0,"CLASSIFICATION_TYPE":"U","NORAD_CAT_ID":61432,"ELEMENT_SET_NO":999,"REV_AT_EPOCH":8368,"BSTAR":0.0010034,"MEAN_MOTION_DOT":0.0001278,"MEAN_MOTION_DDOT":0}]
